{"type": "FeatureCollection", "features": [ {"type": "Feature", "properties": {"norad_id": 34375, "name": "IRIDIUM 33 DEB", "group": "iridium-33-debris", "lat": 35.281531257738756, "lon": -177.25206925076034, "alt_km": 805.9832913466589, "timestamp": "2025-12-18T21:31:51.389306+00:00", "meta": {"OBJECT_NAME": "IRIDIUM 33 DEB", "OBJECT_ID": "1997-051FT", "EPOCH": "2025-12-18T00:04:51.262176", "MEAN_MOTION": 14.18002032, "ECCENTRICITY": 0.01035862, "INCLINATION": 86.4322, "RA_OF_ASC_NODE": 180.5781, "ARG_OF_PERICENTER": 110.261, "MEAN_ANOMALY": 46.7272, "EPHEMERIS_TYPE": 0, "CLASSIFICATION_TYPE": "U", "NORAD_CAT_ID": 34375, "ELEMENT_SET_NO": 999, "REV_AT_EPOCH": 86786, "BSTAR": 0.00035589737, "MEAN_MOTION_DOT": 7.88e-06, "MEAN_MOTION_DDOT": 0}, "tle": {"line1": "1 34375U 97051FT  25352.00337109  .00000788  00000+0  35590-3 0  9991", "line2": "2 34375  86.4322 180.5781 0103586 110.2610  46.7272 14.18002032867867"}}, "geometry": {"type": "Point", "coordinates": [-177.25206925076034, 35.281531257738756]}}, {"type": "Feature", "properties": {"norad_id": 34376, "name": "IRIDIUM 33 DEB", "group": "iridium-33-debris", "lat": -43.45763760980324, "lon": 0.25472311249974133, "alt_km": 710.7886710071261, "timestamp": "2025-12-18T21:31:51.389316+00:00", "meta": {"OBJECT_NAME": "IRIDIUM 33 DEB", "OBJECT_ID": "1997-051FU", "EPOCH": "2025-12-18T05:18:41.561568", "MEAN_MOTION": 14.62642322, "ECCENTRICITY": 0.00278552, "INCLINATION": 86.298, "RA_OF_ASC_NODE": 4.0758, "ARG_OF_PERICENTER": 148.5031, "MEAN_ANOMALY": 211.7855, "EPHEMERIS_TYPE": 0, "CLASSIFICATION_TYPE": "U", "NORAD_CAT_ID": 34376, "ELEMENT_SET_NO": 999, "REV_AT_EPOCH": 88087, "BSTAR": 0.0011778861, "MEAN_MOTION_DOT": 6.044e-05, "MEAN_MOTION_DDOT": 0}, "tle": {"line1": "1 34376U 97051FU  25352.22131437  .00006044  00000+0  11779-2 0  9995", "line2": "2 34376  86.2980   4.0758 0027855 148.5031 211.7855 14.62642322880873"}}, "geometry": {"type": "Point", "coordinates": [0.25472311249974133, -43.45763760980324]}}, {"type": "Feature", "properties": {"norad_id": 34486, "name": "IRIDIUM 33 DEB", "group": "iridium-33-debris", "lat": -11.064962755372887, "lon": -170.11059866534285, "alt_km": 584.6407198097932, "timestamp": "2025-12-18T21:31:51.389327+00:00", "meta": {"OBJECT_NAME": "IRIDIUM 33 DEB", "OBJECT_ID": "1997-051GB", "EPOCH": "2025-12-18T07:54:13.438944", "MEAN_MOTION": 14.96045474, "ECCENTRICITY": 0.00139022, "INCLINATION": 86.3928, "RA_OF_ASC_NODE": 9.4447, "ARG_OF_PERICENTER": 96.2272, "MEAN_ANOMALY": 278.5598, "EPHEMERIS_TYPE": 0, "CLASSIFICATION_TYPE": "U", "NORAD_CAT_ID": 34486, "ELEMENT_SET_NO": 999, "REV_AT_EPOCH": 89070, "BSTAR": 0.0019050072, "MEAN_MOTION_DOT": 0.00021492, "MEAN_MOTION_DDOT": 0}, "tle": {"line1": "1 34486U 97051GB  25352.32932221  .00021492  00000+0  19050-2 0  9992", "line2": "2 34486  86.3928   9.4447 0013902  96.2272 278.5598 14.96045474890706"}}, "geometry": {"type": "Point", "coordinates": [-170.11059866534285, -11.064962755372887]}}, {"type": "Feature", "properties": {"norad_id": 34487, "name": "IRIDIUM 33 DEB", "group": "iridium-33-debris", "lat": 60.51319806614274, "lon": -176.76770049276215, "alt_km": 718.8370173298636, "timestamp": "2025-12-18T21:31:51.389337+00:00", "meta": {"OBJECT_NAME": "IRIDIUM 33 DEB", "OBJECT_ID": "1997-051GC", "EPOCH": "2025-12-18T07:45:56.041056", "MEAN_MOTION": 14.43223269, "ECCENTRICITY": 0.00331222, "INCLINATION": 86.3431, "RA_OF_ASC_NODE": 9.9731, "ARG_OF_PERICENTER": 110.9986, "MEAN_ANOMALY": 270.0816, "EPHEMERIS_TYPE": 0, "CLASSIFICATION_TYPE": "U", "NORAD_CAT_ID": 34487, "ELEMENT_SET_NO": 999, "REV_AT_EPOCH": 88329, "BSTAR": 0.00015301486, "MEAN_MOTION_DOT": 5.38e-06, "MEAN_MOTION_DDOT": 0}, "tle": {"line1": "1 34487U 97051GC  25352.32356529  .00000538  00000+0  15301-3 0  9998", "line2": "2 34487  86.3431   9.9731 0033122 110.9986 270.0816 14.43223269883297"}}, "geometry": {"type": "Point", "coordinates": [-176.76770049276215, 60.51319806614274]}}, {"type": "Feature", "properties": {"norad_id": 34488, "name": "IRIDIUM 33 DEB", "group": "iridium-33-debris", "lat": -32.47849238634854, "lon": 125.10611994994635, "alt_km": 487.2956620316754, "timestamp": "2025-12-18T21:31:51.389347+00:00", "meta": {"OBJECT_NAME": "IRIDIUM 33 DEB", "OBJECT_ID": "1997-051GD", "EPOCH": "2025-12-18T03:20:54.566016", "MEAN_MOTION": 15.30728918, "ECCENTRICITY": 0.00115761, "INCLINATION": 86.3225, "RA_OF_ASC_NODE": 303.1359, "ARG_OF_PERICENTER": 41.9025, "MEAN_ANOMALY": 318.3108, "EPHEMERIS_TYPE": 0, "CLASSIFICATION_TYPE": "U", "NORAD_CAT_ID": 34488, "ELEMENT_SET_NO": 999, "REV_AT_EPOCH": 89322, "BSTAR": 0.0037310323, "MEAN_MOTION_DOT": 0.00112448, "MEAN_MOTION_DDOT": 0}, "tle": {"line1": "1 34488U 97051GD  25352.13952044  .00112448  00000+0  37310-2 0  9999", "line2": "2 34488  86.3225 303.1359 0011576  41.9025 318.3108 15.30728918893222"}}, "geometry": {"type": "Point", "coordinates": [125.10611994994635, -32.47849238634854]}}, {"type": "Feature", "properties": {"norad_id": 34492, "name": "IRIDIUM 33 DEB", "group": "iridium-33-debris", "lat": -2.02031609296131, "lon": 152.26476880170793, "alt_km": 698.858119713288, "timestamp": "2025-12-18T21:31:51.389357+00:00", "meta": {"OBJECT_NAME": "IRIDIUM 33 DEB", "OBJECT_ID": "1997-051GH", "EPOCH": "2025-12-17T23:02:29.114016", "MEAN_MOTION": 14.25827774, "ECCENTRICITY": 0.0188674, "INCLINATION": 86.471, "RA_OF_ASC_NODE": 332.5187, "ARG_OF_PERICENTER": 221.2374, "MEAN_ANOMALY": 195.0015, "EPHEMERIS_TYPE": 0, "CLASSIFICATION_TYPE": "U", "NORAD_CAT_ID": 34492, "ELEMENT_SET_NO": 999, "REV_AT_EPOCH": 85133, "BSTAR": 0.0026488985, "MEAN_MOTION_DOT": 7.614e-05, "MEAN_MOTION_DDOT": 0}, "tle": {"line1": "1 34492U 97051GH  25351.96005919  .00007614  00000+0  26489-2 0  9997", "line2": "2 34492  86.4710 332.5187 0188674 221.2374 195.0015 14.25827774851332"}}, "geometry": {"type": "Point", "coordinates": [152.26476880170793, -2.02031609296131]}}, {"type": "Feature", "properties": {"norad_id": 34497, "name": "IRIDIUM 33 DEB", "group": "iridium-33-debris", "lat": 80.14506662291386, "lon": -152.24069452669875, "alt_km": 835.577596844495, "timestamp": "2025-12-18T21:31:51.389370+00:00", "meta": {"OBJECT_NAME": "IRIDIUM 33 DEB", "OBJECT_ID": "1997-051GN", "EPOCH": "2025-12-18T04:30:11.149056", "MEAN_MOTION": 14.27469284, "ECCENTRICITY": 0.00783512, "INCLINATION": 86.2772, "RA_OF_ASC_NODE": 50.074, "ARG_OF_PERICENTER": 321.7487, "MEAN_ANOMALY": 93.0567, "EPHEMERIS_TYPE": 0, "CLASSIFICATION_TYPE": "U", "NORAD_CAT_ID": 34497, "ELEMENT_SET_NO": 999, "REV_AT_EPOCH": 86961, "BSTAR": 0.00048701444, "MEAN_MOTION_DOT": 1.253e-05, "MEAN_MOTION_DDOT": 0}, "tle": {"line1": "1 34497U 97051GN  25352.18762904  .00001253  00000+0  48701-3 0  9996", "line2": "2 34497  86.2772  50.0740 0078351 321.7487  93.0567 14.27469284869610"}}, "geometry": {"type": "Point", "coordinates": [-152.24069452669875, 80.14506662291386]}}, {"type": "Feature", "properties": {"norad_id": 34508, "name": "IRIDIUM 33 DEB", "group": "iridium-33-debris", "lat": 40.18506057012325, "lon": -83.03986679000812, "alt_km": 714.2989024801636, "timestamp": "2025-12-18T21:31:51.389380+00:00", "meta": {"OBJECT_NAME": "IRIDIUM 33 DEB", "OBJECT_ID": "1997-051GZ", "EPOCH": "2025-12-18T05:51:32.963328", "MEAN_MOTION": 14.38469634, "ECCENTRICITY": 0.00664821, "INCLINATION": 86.3707, "RA_OF_ASC_NODE": 100.3099, "ARG_OF_PERICENTER": 155.2667, "MEAN_ANOMALY": 205.1744, "EPHEMERIS_TYPE": 0, "CLASSIFICATION_TYPE": "U", "NORAD_CAT_ID": 34508, "ELEMENT_SET_NO": 999, "REV_AT_EPOCH": 87388, "BSTAR": 0.0010087099, "MEAN_MOTION_DOT": 3.179e-05, "MEAN_MOTION_DDOT": 0}, "tle": {"line1": "1 34508U 97051GZ  25352.24413152  .00003179  00000+0  10087-2 0  9998", "line2": "2 34508  86.3707 100.3099 0066482 155.2667 205.1744 14.38469634873888"}}, "geometry": {"type": "Point", "coordinates": [-83.03986679000812, 40.18506057012325]}}, {"type": "Feature", "properties": {"norad_id": 34521, "name": "IRIDIUM 33 DEB", "group": "iridium-33-debris", "lat": 30.22911638505829, "lon": -154.27670389245395, "alt_km": 679.4522711856853, "timestamp": "2025-12-18T21:31:51.389391+00:00", "meta": {"OBJECT_NAME": "IRIDIUM 33 DEB", "OBJECT_ID": "1997-051HN", "EPOCH": "2025-12-18T02:47:51.740448", "MEAN_MOTION": 14.63411411, "ECCENTRICITY": 0.00022087, "INCLINATION": 86.3795, "RA_OF_ASC_NODE": 28.1812, "ARG_OF_PERICENTER": 189.1491, "MEAN_ANOMALY": 170.9681, "EPHEMERIS_TYPE": 0, "CLASSIFICATION_TYPE": "U", "NORAD_CAT_ID": 34521, "ELEMENT_SET_NO": 999, "REV_AT_EPOCH": 88551, "BSTAR": 0.00065140638, "MEAN_MOTION_DOT": 3.389e-05, "MEAN_MOTION_DDOT": 0}, "tle": {"line1": "1 34521U 97051HN  25352.11657107  .00003389  00000+0  65141-3 0  9994", "line2": "2 34521  86.3795  28.1812 0002208 189.1491 170.9681 14.63411411885517"}}, "geometry": {"type": "Point", "coordinates": [-154.27670389245395, 30.22911638505829]}}, {"type": "Feature", "properties": {"norad_id": 34525, "name": "IRIDIUM 33 DEB", "group": "iridium-33-debris", "lat": -55.266206873174625, "lon": -130.534197157996, "alt_km": 760.2236742570767, "timestamp": "2025-12-18T21:31:51.389401+00:00", "meta": {"OBJECT_NAME": "IRIDIUM 33 DEB", "OBJECT_ID": "1997-051HS", "EPOCH": "2025-12-18T04:02:52.111680", "MEAN_MOTION": 14.42918347, "ECCENTRICITY": 0.00065369, "INCLINATION": 86.3724, "RA_OF_ASC_NODE": 44.5266, "ARG_OF_PERICENTER": 82.6787, "MEAN_ANOMALY": 331.047, "EPHEMERIS_TYPE": 0, "CLASSIFICATION_TYPE": "U", "NORAD_CAT_ID": 34525, "ELEMENT_SET_NO": 999, "REV_AT_EPOCH": 88166, "BSTAR": 0.00027979279, "MEAN_MOTION_DOT": 9.55e-06, "MEAN_MOTION_DDOT": 0}, "tle": {"line1": "1 34525U 97051HS  25352.16865870  .00000955  00000+0  27979-3 0  9994", "line2": "2 34525  86.3724  44.5266 0006536  82.6787 331.0470 14.42918347881666"}}, "geometry": {"type": "Point", "coordinates": [-130.534197157996, -55.266206873174625]}}]}